IRIDIUM 57              
1 25273U 98019B   24188.80677840  .00000492  00000+0  16515-3 0  9994
2 25273  86.3961 289.9029 0002207  95.1505 264.9944 14.35272142375238
IRIDIUM 63              
1 25286U 98021B   24188.82290903  .00000479  00000+0  15874-3 0  9996
2 25286  86.3983 226.7964 0002163  89.3833 270.7612 14.35822564374272
IRIDIUM 69              
1 25319U 98026A   24188.90313203  .00000582  00000+0  17825-3 0  9999
2 25319  86.3970 241.0890 0004619  87.8955 272.2773 14.40067350373352
IRIDIUM 71              
1 25320U 98026B   24188.82943333  .00000523  00000+0  15859-3 0  9995
2 25320  86.3972 235.8774 0003992 118.5323 241.6278 14.40376680373867
IRIDIUM 73              
1 25344U 98032C   24188.75402855  .00000689  00000+0  17054-3 0  9991
2 25344  86.4439 193.3290 0002983  89.0595 271.0951 14.50611217380463
IRIDIUM 82              
1 25467U 98051A   24188.75041741  .00015970  00000+0  78444-3 0  9990
2 25467  86.3752 276.4862 0126891 148.0634 212.8379 15.11021606371449
